[{"OBJECT_NAME":"INTELSAT 30 (IS-30)","OBJECT_ID":"2014-062A","EPOCH":"2026-04-24T09:28:38.441568","MEAN_MOTION":1.00269572,"ECCENTRICITY":0.00022471,"INCLINATION":0.0073,"RA_OF_ASC_NODE":224.7449,"ARG_OF_PERICENTER":46.3663,"MEAN_ANOMALY":348.4158,"EPHEMERIS_TYPE":0,"CLASSIFICATION_TYPE":"U","NORAD_CAT_ID":40271,"ELEMENT_SET_NO":999,"REV_AT_EPOCH":625,"BSTAR":0,"MEAN_MOTION_DOT":-1.65e-6,"MEAN_MOTION_DDOT":0},{"OBJECT_NAME":"DIRECTV 14","OBJECT_ID":"2014-078B","EPOCH":"2026-04-27T02:26:38.925024","MEAN_MOTION":1.00272214,"ECCENTRICITY":7.15e-6,"INCLINATION":0.0115,"RA_OF_ASC_NODE":56.2272,"ARG_OF_PERICENTER":70.8345,"MEAN_ANOMALY":25.4552,"EPHEMERIS_TYPE":0,"CLASSIFICATION_TYPE":"U","NORAD_CAT_ID":40333,"ELEMENT_SET_NO":999,"REV_AT_EPOCH":4153,"BSTAR":0,"MEAN_MOTION_DOT":-1.36e-6,"MEAN_MOTION_DDOT":0},{"OBJECT_NAME":"DIRECTV 15","OBJECT_ID":"2015-026A","EPOCH":"2026-04-27T00:16:38.720928","MEAN_MOTION":1.00268423,"ECCENTRICITY":9.93e-6,"INCLINATION":0.0133,"RA_OF_ASC_NODE":117.8329,"ARG_OF_PERICENTER":23.3852,"MEAN_ANOMALY":335.0755,"EPHEMERIS_TYPE":0,"CLASSIFICATION_TYPE":"U","NORAD_CAT_ID":40663,"ELEMENT_SET_NO":999,"REV_AT_EPOCH":3995,"BSTAR":0,"MEAN_MOTION_DOT":0,"MEAN_MOTION_DDOT":0},{"OBJECT_NAME":"SKY MEXICO-1","OBJECT_ID":"2015-026B","EPOCH":"2026-04-26T23:52:38.578944","MEAN_MOTION":1.0026863,"ECCENTRICITY":0.00021994,"INCLINATION":0.0213,"RA_OF_ASC_NODE":104.3535,"ARG_OF_PERICENTER":294.7306,"MEAN_ANOMALY":95.253,"EPHEMERIS_TYPE":0,"CLASSIFICATION_TYPE":"U","NORAD_CAT_ID":40664,"ELEMENT_SET_NO":999,"REV_AT_EPOCH":3994,"BSTAR":0,"MEAN_MOTION_DOT":0,"MEAN_MOTION_DDOT":0},{"OBJECT_NAME":"INTELSAT 34 (IS-34)","OBJECT_ID":"2015-039A","EPOCH":"2026-04-27T01:16:57.338688","MEAN_MOTION":1.00272031,"ECCENTRICITY":3.924e-5,"INCLINATION":0.0159,"RA_OF_ASC_NODE":282.6958,"ARG_OF_PERICENTER":53.1503,"MEAN_ANOMALY":202.9473,"EPHEMERIS_TYPE":0,"CLASSIFICATION_TYPE":"U","NORAD_CAT_ID":40874,"ELEMENT_SET_NO":999,"REV_AT_EPOCH":3912,"BSTAR":0,"MEAN_MOTION_DOT":-2.96e-6,"MEAN_MOTION_DDOT":0},{"OBJECT_NAME":"INTELSAT 31 (IS-31)","OBJECT_ID":"2016-035A","EPOCH":"2026-04-27T04:51:38.611872","MEAN_MOTION":1.00271579,"ECCENTRICITY":0.00021754,"INCLINATION":0.0118,"RA_OF_ASC_NODE":236.8963,"ARG_OF_PERICENTER":37.6939,"MEAN_ANOMALY":278.47,"EPHEMERIS_TYPE":0,"CLASSIFICATION_TYPE":"U","NORAD_CAT_ID":41581,"ELEMENT_SET_NO":999,"REV_AT_EPOCH":3617,"BSTAR":0,"MEAN_MOTION_DOT":-1.61e-6,"MEAN_MOTION_DDOT":0},{"OBJECT_NAME":"INTELSAT 36 (IS-36)","OBJECT_ID":"2016-053A","EPOCH":"2026-04-27T04:16:38.848224","MEAN_MOTION":1.00264533,"ECCENTRICITY":0.00020185,"INCLINATION":0.0113,"RA_OF_ASC_NODE":314.308,"ARG_OF_PERICENTER":5.2296,"MEAN_ANOMALY":28.2866,"EPHEMERIS_TYPE":0,"CLASSIFICATION_TYPE":"U","NORAD_CAT_ID":41747,"ELEMENT_SET_NO":999,"REV_AT_EPOCH":3544,"BSTAR":0,"MEAN_MOTION_DOT":-3.3e-7,"MEAN_MOTION_DDOT":0},{"OBJECT_NAME":"INTELSAT 32E (IS-32E)","OBJECT_ID":"2017-007B","EPOCH":"2026-04-27T01:20:27.003840","MEAN_MOTION":1.00263609,"ECCENTRICITY":1.008e-5,"INCLINATION":0.0214,"RA_OF_ASC_NODE":249.0957,"ARG_OF_PERICENTER":9.5332,"MEAN_ANOMALY":293.3676,"EPHEMERIS_TYPE":0,"CLASSIFICATION_TYPE":"U","NORAD_CAT_ID":41945,"ELEMENT_SET_NO":999,"REV_AT_EPOCH":3371,"BSTAR":0,"MEAN_MOTION_DOT":0,"MEAN_MOTION_DDOT":0},{"OBJECT_NAME":"INTELSAT 35E (IS-35E)","OBJECT_ID":"2017-041A","EPOCH":"2026-04-27T01:22:56.764416","MEAN_MOTION":1.00271365,"ECCENTRICITY":0.00021401,"INCLINATION":0.0118,"RA_OF_ASC_NODE":223.7397,"ARG_OF_PERICENTER":169.6513,"MEAN_ANOMALY":167.9153,"EPHEMERIS_TYPE":0,"CLASSIFICATION_TYPE":"U","NORAD_CAT_ID":42818,"ELEMENT_SET_NO":999,"REV_AT_EPOCH":3230,"BSTAR":0,"MEAN_MOTION_DOT":0,"MEAN_MOTION_DDOT":0},{"OBJECT_NAME":"INTELSAT 37E (IS-37E)","OBJECT_ID":"2017-059A","EPOCH":"2026-04-27T05:36:38.689632","MEAN_MOTION":1.0026961,"ECCENTRICITY":0.00023614,"INCLINATION":0.0175,"RA_OF_ASC_NODE":242.2006,"ARG_OF_PERICENTER":181.5052,"MEAN_ANOMALY":217.6819,"EPHEMERIS_TYPE":0,"CLASSIFICATION_TYPE":"U","NORAD_CAT_ID":42950,"ELEMENT_SET_NO":999,"REV_AT_EPOCH":3155,"BSTAR":0,"MEAN_MOTION_DOT":0,"MEAN_MOTION_DDOT":0},{"OBJECT_NAME":"AZERSPACE 2 (IS-38)","OBJECT_ID":"2018-074A","EPOCH":"2026-04-27T04:48:38.757312","MEAN_MOTION":1.00270976,"ECCENTRICITY":0.00014443,"INCLINATION":0.0215,"RA_OF_ASC_NODE":254.193,"ARG_OF_PERICENTER":133.4629,"MEAN_ANOMALY":304.8047,"EPHEMERIS_TYPE":0,"CLASSIFICATION_TYPE":"U","NORAD_CAT_ID":43632,"ELEMENT_SET_NO":999,"REV_AT_EPOCH":2793,"BSTAR":0,"MEAN_MOTION_DOT":1.26e-6,"MEAN_MOTION_DDOT":0},{"OBJECT_NAME":"HORIZONS-3E","OBJECT_ID":"2018-074B","EPOCH":"2026-04-27T02:34:38.741376","MEAN_MOTION":1.0027131,"ECCENTRICITY":6.656e-5,"INCLINATION":0.0414,"RA_OF_ASC_NODE":73.903,"ARG_OF_PERICENTER":260.1791,"MEAN_ANOMALY":88.6672,"EPHEMERIS_TYPE":0,"CLASSIFICATION_TYPE":"U","NORAD_CAT_ID":43633,"ELEMENT_SET_NO":999,"REV_AT_EPOCH":2782,"BSTAR":0,"MEAN_MOTION_DOT":-4.1e-7,"MEAN_MOTION_DDOT":0},{"OBJECT_NAME":"AT&T T-16","OBJECT_ID":"2019-034A","EPOCH":"2026-04-27T02:26:38.925024","MEAN_MOTION":1.00271022,"ECCENTRICITY":5.384e-5,"INCLINATION":0.0431,"RA_OF_ASC_NODE":71.5086,"ARG_OF_PERICENTER":163.4814,"MEAN_ANOMALY":275.9135,"EPHEMERIS_TYPE":0,"CLASSIFICATION_TYPE":"U","NORAD_CAT_ID":44333,"ELEMENT_SET_NO":999,"REV_AT_EPOCH":2512,"BSTAR":0,"MEAN_MOTION_DOT":-1.26e-6,"MEAN_MOTION_DDOT":0},{"OBJECT_NAME":"INTELSAT 39 (IS-39)","OBJECT_ID":"2019-049B","EPOCH":"2026-04-27T03:10:38.767296","MEAN_MOTION":1.00269427,"ECCENTRICITY":4.405e-5,"INCLINATION":0.0212,"RA_OF_ASC_NODE":248.8246,"ARG_OF_PERICENTER":353.0774,"MEAN_ANOMALY":82.8304,"EPHEMERIS_TYPE":0,"CLASSIFICATION_TYPE":"U","NORAD_CAT_ID":44476,"ELEMENT_SET_NO":999,"REV_AT_EPOCH":2461,"BSTAR":0,"MEAN_MOTION_DOT":0,"MEAN_MOTION_DDOT":0},{"OBJECT_NAME":"GALAXY 30 (G-30)","OBJECT_ID":"2020-056C","EPOCH":"2026-04-27T00:57:06.743232","MEAN_MOTION":1.00271333,"ECCENTRICITY":0.0002527,"INCLINATION":0.0126,"RA_OF_ASC_NODE":236.3465,"ARG_OF_PERICENTER":172.8147,"MEAN_ANOMALY":55.1468,"EPHEMERIS_TYPE":0,"CLASSIFICATION_TYPE":"U","NORAD_CAT_ID":46114,"ELEMENT_SET_NO":999,"REV_AT_EPOCH":2078,"BSTAR":0,"MEAN_MOTION_DOT":0,"MEAN_MOTION_DDOT":0},{"OBJECT_NAME":"GALAXY 33 (G-33)","OBJECT_ID":"2022-128A","EPOCH":"2026-04-27T03:54:38.810016","MEAN_MOTION":1.00273448,"ECCENTRICITY":0.00018071,"INCLINATION":0.0148,"RA_OF_ASC_NODE":278.1612,"ARG_OF_PERICENTER":104.2351,"MEAN_ANOMALY":118.4156,"EPHEMERIS_TYPE":0,"CLASSIFICATION_TYPE":"U","NORAD_CAT_ID":54026,"ELEMENT_SET_NO":999,"REV_AT_EPOCH":1323,"BSTAR":0,"MEAN_MOTION_DOT":6.8e-7,"MEAN_MOTION_DDOT":0},{"OBJECT_NAME":"GALAXY 34 (G-34)","OBJECT_ID":"2022-128B","EPOCH":"2026-04-27T05:56:51.522720","MEAN_MOTION":1.00272309,"ECCENTRICITY":0.00015551,"INCLINATION":0.0126,"RA_OF_ASC_NODE":240.0125,"ARG_OF_PERICENTER":158.3101,"MEAN_ANOMALY":137.1267,"EPHEMERIS_TYPE":0,"CLASSIFICATION_TYPE":"U","NORAD_CAT_ID":54027,"ELEMENT_SET_NO":999,"REV_AT_EPOCH":1340,"BSTAR":0,"MEAN_MOTION_DOT":4.9e-7,"MEAN_MOTION_DDOT":0}]
